{
  "type": "FeatureCollection",
  "name": "rishiganga_satellite_flood_extent",
  "crs": {
    "type": "name",
    "properties": {
      "name": "urn:ogc:def:crs:OGC:1.3:CRS84"
    }
  },
  "features": [
    {
      "type": "Feature",
      "properties": {
        "event": "Rishi Ganga & Dhauliganga River Disaster",
        "event_date": "2021-02-07",
        "location": "Chamoli, Uttarakhand",
        "satellite": "Sentinel-1 IW GRD",
        "detection_method": "SAR Backscatter Threshold + RF ML Classifier",
        "flooded_area_ha": 1.34,
        "flooded_area_km2": 0.0134
      },
      "geometry": {
        "type": "Polygon",
        "coordinates": [
          [
            [
              79.55,
              30.45
            ],
            [
              79.78,
              30.45
            ],
            [
              79.75,
              30.62
            ],
            [
              79.58,
              30.6
            ],
            [
              79.55,
              30.45
            ]
          ]
        ]
      }
    }
  ]
}